OBJECT_NAME,OBJECT_ID,EPOCH,MEAN_MOTION,ECCENTRICITY,INCLINATION,RA_OF_ASC_NODE,ARG_OF_PERICENTER,MEAN_ANOMALY,EPHEMERIS_TYPE,CLASSIFICATION_TYPE,NORAD_CAT_ID,ELEMENT_SET_NO,REV_AT_EPOCH,BSTAR,MEAN_MOTION_DOT,MEAN_MOTION_DDOT
BIRKELAND,2023-001G,2026-06-20T06:21:54.300384,15.40119586,.0008351,97.3340,239.2431,96.6213,263.5984,0,U,55015,999,19282,.19295893E-3,.7653E-4,0
ION SCV-008,2023-001AU,2026-06-20T04:24:32.590656,15.28605132,.00147268,97.5710,267.5519,8.0739,352.0734,0,U,55051,999,19179,.1860003E-3,.5112E-4,0
ION SCV-007,2023-001BD,2026-06-20T04:15:49.112064,14.77555577,.00115847,97.9005,234.1333,332.1416,27.9173,0,U,55060,999,18669,.49132954E-4,.3E-5,0
HUYGENS,2023-001CN,2026-06-20T06:22:01.545888,15.40120940,.00109606,97.3245,238.4691,77.0293,283.2176,0,U,55093,999,19284,.19592265E-3,.7779E-4,0
SHARJAHSAT-1,2023-001CZ,2026-06-20T06:40:19.885152,15.49167885,.00069033,97.3168,240.0868,94.5250,265.6790,0,U,55104,999,19297,.33482704E-3,.18163E-3,0
HORUS 1,2023-025A,2026-06-20T07:20:40.236864,15.23288751,.00015697,97.3459,245.8362,146.5368,213.5968,0,U,55690,999,18452,.18944203E-3,.4423E-4,0
HORUS 2,2023-032A,2026-06-20T06:36:54.038016,15.23453337,.00022899,97.3529,246.6149,102.8189,257.3304,0,U,55844,999,18195,.19459157E-3,.4568E-4,0
GLOBAL-19,2023-041B,2026-06-19T12:01:50.369952,15.38063484,.00083333,42.0000,188.3911,19.0119,341.1030,0,U,55982,999,18228,.24203159E-3,.9023E-4,0
BRO-9,2023-054H,2026-06-20T07:21:13.739328,16.13304637,.00094446,97.2894,90.1950,178.2558,181.8762,0,U,56185,999,17959,.10357473E-2,.1185558E-1,.95623794E-3
ION SCV-010,2023-054Q,2026-06-20T05:47:43.788192,15.26218053,.00125098,97.3775,60.7037,185.8338,174.2757,0,U,56192,999,17666,.14960663E-3,.3806E-4,0
TELEOS-2,2023-057C,2026-06-20T06:55:39.389376,14.96429182,.00001529,9.9873,181.5952,201.8773,158.1435,0,U,56310,999,17326,-.3491E-7,.687E-5,0
SNIPE 4,2023-072B,2026-06-20T06:18:54.851040,15.42451690,.00041025,97.5251,17.3656,324.8162,35.2813,0,U,56744,999,17058,.41813226E-3,.18027E-3,0
SNIPE 2,2023-072C,2026-06-20T07:07:40.548576,15.46980763,.00037754,97.5244,20.4660,3.3557,356.7717,0,U,56745,999,17072,.47438052E-3,.23884E-3,0
2023-072G,2023-072G,2026-06-20T06:57:34.344576,15.50723777,.00024202,97.4903,19.2656,357.2712,2.8526,0,U,56749,999,17094,.47371194E-3,.27193E-3,0
GEISAT PRECURSOR,2023-084C,2026-06-20T06:48:05.904288,15.34686946,.00046657,97.6231,312.3383,345.6662,14.4447,0,U,56934,999,16800,.19577806E-3,.6498E-4,0
BLACKJACK ACES-3,2023-084U,2026-06-20T06:24:54.396000,15.18495136,.00023364,97.6217,306.4812,29.7980,330.3386,0,U,56950,999,16763,.21836261E-3,.4433E-4,0
BLACKJACK ACES-2,2023-084Z,2026-06-20T06:33:38.240064,15.18509695,.00007499,97.6214,306.5722,85.4394,274.6925,0,U,56955,999,16764,.27148642E-3,.5532E-4,0
BLACKJACK ACES-1,2023-084AA,2026-06-20T06:16:05.018016,15.18484370,.00009613,97.6204,306.3344,122.7749,237.3577,0,U,56956,999,11736,.27868202E-3,.5676E-4,0
ION SCV-011,2023-084AB,2026-06-20T01:50:51.063360,15.28869998,.00078046,98.1384,358.6235,36.7745,323.4027,0,U,56957,999,16625,.16204705E-3,.446E-4,0
GHOST-3,2023-084AC,2026-06-19T22:38:15.819360,15.47955621,.00055054,97.6220,319.6628,281.9633,78.0999,0,U,56958,999,16844,.29540763E-3,.15334E-3,0
TOMORROW-R2,2023-084AG,2026-06-19T23:10:15.475296,16.12161530,.00090403,97.6051,335.6322,244.4718,115.5631,0,U,56962,999,16950,.64795336E-3,.694685E-2,.27314823E-3
AFR-1,2023-084AJ,2026-06-20T07:25:03.914976,15.28576496,.00096615,97.6281,308.0750,335.2493,24.8282,0,U,56964,999,16770,.13353589E-3,.3637E-4,0
METEOR-M2 3,2023-091A,2026-06-20T07:55:58.396800,14.24047055,.00045218,98.6081,226.2446,147.4913,212.6545,0,U,57166,999,15496,.1294936E-4,-.13E-6,0
UMKA 1 (RS40S),2023-091G,2026-06-20T02:53:32.337888,15.20846269,.00143309,97.5045,229.8066,108.5784,251.7009,0,U,57172,999,16445,.23515809E-3,.5134E-4,0
2023-091H,2023-091H,2026-06-20T06:13:43.100832,15.28692382,.0011288,97.5043,234.4765,103.8926,256.3570,0,U,57173,999,16477,.35300151E-3,.9792E-4,0
2023-091J,2023-091J,2026-06-20T07:04:35.833152,15.13944504,.00145465,97.5051,224.3471,133.2362,227.0086,0,U,57174,999,16410,.17472612E-3,.3108E-4,0
CUBEBEL 2 (EU11S),2023-091K,2026-06-20T06:13:28.170048,15.29216608,.00113005,97.5045,234.5039,105.5597,254.6892,0,U,57175,999,16477,.41713455E-3,.11777E-3,0
SITRO-AIS 5 (KATYS),2023-091L,2026-06-20T06:37:04.005120,15.29516052,.00127117,97.5056,235.2048,93.9091,266.3603,0,U,57176,999,16481,.35450314E-3,.10092E-3,0
ZORKIY-2M 1,2023-091M,2026-06-20T07:17:55.098816,15.20937442,.00148535,97.5085,230.2596,105.5171,254.7706,0,U,57177,999,16447,.27184209E-3,.5964E-4,0
CUBESX-HSE 3 (RS42S),2023-091N,2026-06-20T05:53:06.559584,15.31279790,.00119581,97.5086,236.8713,85.3921,274.8685,0,U,57178,999,16489,.37740527E-3,.11352E-3,0
