BIRKELAND               
1 55015U 23001G   26171.26521181  .00007653  00000+0  19296-3 0  9995
2 55015  97.3340 239.2431 0008351  96.6213 263.5984 15.40119586192821
ION SCV-008             
1 55051U 23001AU  26171.18371054  .00005112  00000+0  18600-3 0  9994
2 55051  97.5710 267.5519 0014726   8.0739 352.0734 15.28605132191793
ION SCV-007             
1 55060U 23001BD  26171.17765176  .00000300  00000+0  49133-4 0  9995
2 55060  97.9005 234.1333 0011584 332.1416  27.9173 14.77555577186698
HUYGENS                 
1 55093U 23001CN  26171.26529567  .00007779  00000+0  19592-3 0  9995
2 55093  97.3245 238.4691 0010960  77.0293 283.2176 15.40120940192840
SHARJAHSAT-1            
1 55104U 23001CZ  26171.27800793  .00018163  00000+0  33483-3 0  9996
2 55104  97.3168 240.0868 0006903  94.5250 265.6790 15.49167885192979
HORUS 1                 
1 55690U 23025A   26171.30602126  .00004423  00000+0  18944-3 0  9995
2 55690  97.3459 245.8362 0001569 146.5368 213.5968 15.23288751184524
HORUS 2                 
1 55844U 23032A   26171.27562544  .00004568  00000+0  19459-3 0  9991
2 55844  97.3529 246.6149 0002289 102.8189 257.3304 15.23453337181959
GLOBAL-19               
1 55982U 23041B   26170.50127743  .00009023  00000+0  24203-3 0  9991
2 55982  42.0000 188.3911 0008333  19.0119 341.1030 15.38063484182281
BRO-9                   
1 56185U 23054H   26171.30640902  .01185558  95624-3  10357-2 0  9990
2 56185  97.2894  90.1950 0009444 178.2558 181.8762 16.13304637179595
ION SCV-010             
1 56192U 23054Q   26171.24147903  .00003806  00000+0  14961-3 0  9994
2 56192  97.3775  60.7037 0012509 185.8338 174.2757 15.26218053176661
TELEOS-2                
1 56310U 23057C   26171.28865034  .00000687  00000+0 -34910-7 0  9990
2 56310   9.9873 181.5952 0000152 201.8773 158.1435 14.96429182173262
SNIPE 4                 
1 56744U 23072B   26171.26313485  .00018027  00000+0  41813-3 0  9996
2 56744  97.5251  17.3656 0004102 324.8162  35.2813 15.42451690170588
SNIPE 2                 
1 56745U 23072C   26171.29699709  .00023884  00000+0  47438-3 0  9992
2 56745  97.5244  20.4660 0003775   3.3557 356.7717 15.46980763170725
2023-072G               
1 56749U 23072G   26171.28998084  .00027193  00000+0  47371-3 0  9996
2 56749  97.4903  19.2656 0002420 357.2712   2.8526 15.50723777170947
GEISAT PRECURSOR        
1 56934U 23084C   26171.28340167  .00006498  00000+0  19578-3 0  9991
2 56934  97.6231 312.3383 0004665 345.6662  14.4447 15.34686946168004
BLACKJACK ACES-3        
1 56950U 23084U   26171.26729625  .00004433  00000+0  21836-3 0  9994
2 56950  97.6217 306.4812 0002336  29.7980 330.3386 15.18495136167634
BLACKJACK ACES-2        
1 56955U 23084Z   26171.27335926  .00005532  00000+0  27149-3 0  9991
2 56955  97.6214 306.5722 0000749  85.4394 274.6925 15.18509695167647
BLACKJACK ACES-1        
1 56956U 23084AA  26171.26116919  .00005676  00000+0  27868-3 0  9997
2 56956  97.6204 306.3344 0000961 122.7749 237.3577 15.18484370117365
ION SCV-011             
1 56957U 23084AB  26171.07697990  .00004460  00000+0  16205-3 0  9993
2 56957  98.1384 358.6235 0007804  36.7745 323.4027 15.28869998166256
GHOST-3                 
1 56958U 23084AC  26170.94323865  .00015334  00000+0  29541-3 0  9995
2 56958  97.6220 319.6628 0005505 281.9633  78.0999 15.47955621168443
TOMORROW-R2             
1 56962U 23084AG  26170.96545689  .00694685  27315-3  64795-3 0  9996
2 56962  97.6051 335.6322 0009040 244.4718 115.5631 16.12161530169504
AFR-1                   
1 56964U 23084AJ  26171.30907309  .00003637  00000+0  13354-3 0  9992
2 56964  97.6281 308.0750 0009661 335.2493  24.8282 15.28576496167709
METEOR-M2 3             
1 57166U 23091A   26171.33053700 -.00000013  00000+0  12949-4 0  9991
2 57166  98.6081 226.2446 0004521 147.4913 212.6545 14.24047055154968
UMKA 1 (RS40S)          
1 57172U 23091G   26171.12051317  .00005134  00000+0  23516-3 0  9996
2 57172  97.5045 229.8066 0014330 108.5784 251.7009 15.20846269164458
2023-091H               
1 57173U 23091H   26171.25952663  .00009792  00000+0  35300-3 0  9993
2 57173  97.5043 234.4765 0011288 103.8926 256.3570 15.28692382164772
2023-091J               
1 57174U 23091J   26171.29485918  .00003108  00000+0  17473-3 0  9998
2 57174  97.5051 224.3471 0014546 133.2362 227.0086 15.13944504164109
CUBEBEL 2 (EU11S)       
1 57175U 23091K   26171.25935382  .00011777  00000+0  41713-3 0  9995
2 57175  97.5045 234.5039 0011300 105.5597 254.6892 15.29216608164771
SITRO-AIS 5 (KATYS)     
1 57176U 23091L   26171.27574080  .00010092  00000+0  35450-3 0  9992
2 57176  97.5056 235.2048 0012711  93.9091 266.3603 15.29516052164819
ZORKIY-2M 1             
1 57177U 23091M   26171.30410994  .00005964  00000+0  27184-3 0  9997
2 57177  97.5085 230.2596 0014853 105.5171 254.7706 15.20937442164471
CUBESX-HSE 3 (RS42S)    
1 57178U 23091N   26171.24521481  .00011352  00000+0  37741-3 0  9993
2 57178  97.5086 236.8713 0011958  85.3921 274.8685 15.31279790164899
